{
  "type": "FeatureCollection",
  "features": [
    {
      "_id": "6a833006a0afb84463f9cd30",
      "mission": "menu",
      "key": "d9c0c1e8a0314c39a12ab17ca39a9189",
      "geometry": {
        "type": "Point",
        "coordinates": [
          106.64333888517064,
          -6.321615075387657
        ]
      },
      "properties": {
        "nama_tempat": "Nasi Hainam Ahua",
        "jenis_tempat": "Warung/Tenda",
        "tanggal": {},
        "foto_tempat": "https://mapid-app-chat.cdn.mapid.io/mapid_apps_survei/6a60cfdd2b3a6d27a6ca1549/1786964312383_image_picker_1c2c9b71-ace0-4828-bc07-d7ee691938b6-3857-0000012fefa35aa5.jpg",
        "foto_menu_1": "https://mapid-app-chat.cdn.mapid.io/mapid_apps_survei/6a60cfdd2b3a6d27a6ca1549/1786964188857_stamped_1786964184052.jpg",
        "foto_menu_2": "https://mapid-app-chat.cdn.mapid.io/mapid_apps_survei/6a60cfdd2b3a6d27a6ca1549/1786964233065_stamped_1786964231427.jpg",
        "menu_utama": "Nasi Hainam Ayam Panggang",
        "harga_rata_rata": 40000,
        "kondisi_tempat": "Sedang (Ada 1-3 pembeli yang sedang menunggu/makan)",
        "mobilitas": " Tidak (Menetap/Mangkal di satu titik)"
      },
      "type": "Feature"
    }
  ]
}